[{"OBJECT_NAME":"OBJECT G","OBJECT_ID":"2025-155G","EPOCH":"2026-03-09T22:09:56.639808","MEAN_MOTION":15.27590702,"ECCENTRICITY":0.00081871,"INCLINATION":97.4488,"RA_OF_ASC_NODE":37.3259,"ARG_OF_PERICENTER":154.1528,"MEAN_ANOMALY":206.0122,"EPHEMERIS_TYPE":0,"CLASSIFICATION_TYPE":"U","NORAD_CAT_ID":64882,"ELEMENT_SET_NO":999,"REV_AT_EPOCH":6559,"BSTAR":0.0004792617,"MEAN_MOTION_DOT":0.00012876,"MEAN_MOTION_DDOT":0},{"OBJECT_NAME":"STARLINK-36468","OBJECT_ID":"2026-005M","EPOCH":"2026-03-09T12:00:43.062624","MEAN_MOTION":15.27593567,"ECCENTRICITY":0.00017938,"INCLINATION":42.9967,"RA_OF_ASC_NODE":239.3847,"ARG_OF_PERICENTER":290.0417,"MEAN_ANOMALY":70.0242,"EPHEMERIS_TYPE":0,"CLASSIFICATION_TYPE":"U","NORAD_CAT_ID":67415,"ELEMENT_SET_NO":999,"REV_AT_EPOCH":866,"BSTAR":0.0014118548,"MEAN_MOTION_DOT":0.00038811,"MEAN_MOTION_DDOT":0}]
